{"format":"tle-catalog-v1","generatedAt":"2026-06-25T16:01:17.978Z","count":6895,"entries":[{"name":"ALOUETTE 2","line1":"1 01804U 65098A   26175.57638208  .00000546  00000+0  17928-3 0  9995","line2":"2 01804  79.8005 270.3655 1329972 217.5344 132.5273 12.28351247680182"},{"name":"ATS 5","line1":"1 04068U 69069A   26175.97833795 -.00000276  00000+0  00000+0 0  9994","line2":"2 04068   0.2646 148.0966 0005267 129.4435 107.5652  0.99492553 46406"},{"name":"COSMOS 2197","line1":"1 22034U 92042A   26176.22283403  .00000010  00000+0 -16387-5 0  9995","line2":"2 22034  82.5929 223.7997 0011448 253.7391 172.7668 12.64252018566303"},{"name":"ERS 15","line1":"1 02412U 66077C   26174.73663014  .00000002  00000+0  00000+0 0  9995","line2":"2 02412  90.3367 277.3094 0007195  63.6903 296.4687  8.59079367391021"},{"name":"EUTELSAT 1-F4 (ECS 4)","line1":"1 18351U 87078B   26175.93628141 -.00000027  00000+0  00000+0 0  9991","line2":"2 18351  13.8231 342.0719 0010549  45.1331 130.0102  0.98687380126836"},{"name":"GEOSAT","line1":"1 15595U 85021A   26176.27710892  .00000099  00000+0  74672-4 0  9996","line2":"2 15595 108.0418  98.2822 0001449 293.1958  66.9031 14.39969768163934"},{"name":"HILAT","line1":"1 14154U 83063A   26176.22725521  .00000353  00000+0  10922-3 0  9990","line2":"2 14154  82.0238 153.5518 0037766 266.3106 104.1307 14.38716228248744"},{"name":"IRS-1B","line1":"1 21688U 91061A   26176.26857299 -.00000196  00000+0 -10467-3 0  9990","line2":"2 21688  99.4113 184.4169 0024116 343.0861  27.4885 13.97876715669623"},{"name":"ISIS 1","line1":"1 03669U 69009A   26175.89197508  .00000062  00000+0  43643-4 0  9997","line2":"2 03669  88.4431 143.5531 1706503 232.6545 110.6763 11.30434654360649"},{"name":"LES-1","line1":"1 01002U 65008C   26176.22111967  .00000006  00000+0 -34510-3 0  9995","line2":"2 01002  32.1474  25.6752 0015556 298.9776  60.9162  9.88354837216988"},{"name":"LUSAT (LO-19)","line1":"1 20442U 90005G   26175.99605584  .00000102  00000+0  53001-4 0  9998","line2":"2 20442  98.8847 198.0168 0011576 177.8494 182.2741 14.34125258903519"},{"name":"NOAA 2 (ITOS-D)","line1":"1 06235U 72082A   26176.02475564 -.00000037  00000+0  58113-4 0  9992","line2":"2 06235 102.0072 194.6822 0004387 150.6380 265.4453 12.53215141455937"},{"name":"NOAA 9","line1":"1 15427U 84123A   26176.03932315  .00000087  00000+0  66364-4 0  9998","line2":"2 15427  99.0985 202.8592 0014077 331.4849  82.1972 14.17070012144539"},{"name":"OPS 6582 (TRANSIT 5B-5)","line1":"1 00965U 64083D   26176.13095597  .00000048  00000+0  54196-4 0  9992","line2":"2 00965  90.0758 203.1037 0039552 253.8254 168.5065 13.57013488 44694"},{"name":"OPS 7613 (P/L 1)","line1":"1 04256U 69082B   26175.67120544  .00000066  00000+0  82142-4 0  9994","line2":"2 04256  70.0106 308.9363 0017540  50.7731 309.4931 13.99199302891514"},{"name":"OPS 7613 (P/L 4)","line1":"1 04237U 69082E   26176.19187601  .00000028  00000+0  59008-4 0  9991","line2":"2 04237  70.0153  86.7915 0018277 123.8547 292.6887 13.95997753887424"},{"name":"OPS 7898 (P/L 2)","line1":"1 05680U 71110C   26176.17374356 -.00000002  00000+0  50427-4 0  9991","line2":"2 05680  69.9905 346.4372 0007383 178.0995 182.0128 13.74759481349319"},{"name":"OSCAR 7 (AO-7)","line1":"1 07530U 74089B   26176.27122769 -.00000034  00000+0  78645-4 0  9992","line2":"2 07530 101.9899 189.6021 0012639 115.1712 256.0878 12.53698176361532"},{"name":"OV3-3","line1":"1 02389U 66070A   26176.24466471  .00021123  00000+0  93704-3 0  9991","line2":"2 02389  81.3252 323.9015 1011250 136.7723 231.7470 13.45655009600050"},{"name":"PACSAT (AO-16)","line1":"1 20439U 90005D   26176.13307373  .00000114  00000+0  57389-4 0  9992","line2":"2 20439  98.8518 211.9990 0010139 202.7645 243.2640 14.33938966903072"},{"name":"PHASE 3B (AO-10)","line1":"1 14129U 83058B   26174.68191131 -.00000085  00000+0  00000+0 0  9993","line2":"2 14129  25.9176 218.4895 6008564 117.4551 314.9460  2.05872578295624"},{"name":"PROSPERO (BLACK ARROW)","line1":"1 05580U 71093A   26176.29448630  .00002036  00000+0  43446-3 0  9990","line2":"2 05580  82.0390 283.7118 0500819 203.7456 153.9873 14.01630641749666"},{"name":"SECOR 13 (EGRS 13)","line1":"1 03891U 69037B   26176.22878304 -.00000031  00000+0  19686-4 0  9990","line2":"2 03891  99.6478  47.3663 0038825 230.9552 257.3425 13.42977240802835"},{"name":"SECOR 4 (EGRS 4)","line1":"1 01315U 65027B   26176.08670613  .00000003  00000+0 -14627-4 0  9990","line2":"2 01315  90.2491  15.7555 0031171 176.5582 307.9616 12.92667994887945"},{"name":"SECOR 7 (EGRS 7)","line1":"1 02411U 66077B   26174.73297608 -.00000013  00000+0 -70553-2 0  9993","line2":"2 02411  90.3372 277.5165 0011344  52.8831 307.3055  8.59615369877947"},{"name":"SHINSEI (MS-F2)","line1":"1 05485U 71080A   26175.37974550  .00000046  00000+0  64437-4 0  9996","line2":"2 05485  32.0534  72.0044 0639559  86.6592 280.6903 12.74252769550172"},{"name":"SOLRAD 7B","line1":"1 01291U 65016D   26176.28574858 -.00000005  00000+0  34711-4 0  9995","line2":"2 01291  70.0776 219.0462 0018587 113.3337 246.9727 13.94976438117837"},{"name":"TIROS 10","line1":"1 01430U 65051A   26176.23304869  .00000121  00000+0  50114-4 0  9990","line2":"2 01430  98.5046 295.5285 0056205  55.6704 304.9786 14.41633643197079"},{"name":"TIROS N","line1":"1 11060U 78096A   26176.03339604  .00000105  00000+0  69686-4 0  9992","line2":"2 11060  98.4528 196.7312 0009665 213.9598 146.0961 14.19377186679868"},{"name":"UOSAT 2 (UO-11)","line1":"1 14781U 84021B   26175.87304522  .00001162  00000+0  12372-3 0  9995","line2":"2 14781  97.8060 141.3619 0008292 148.6773 211.4941 14.90800616258276"}]}